[{"OBJECT_NAME":"STARLINK-6249","OBJECT_ID":"2023-065AQ","EPOCH":"2026-03-09T22:00:01.999584","MEAN_MOTION":15.13259741,"ECCENTRICITY":0.00026279,"INCLINATION":43.0007,"RA_OF_ASC_NODE":221.7072,"ARG_OF_PERICENTER":261.9718,"MEAN_ANOMALY":105.155,"EPHEMERIS_TYPE":0,"CLASSIFICATION_TYPE":"U","NORAD_CAT_ID":56541,"ELEMENT_SET_NO":999,"REV_AT_EPOCH":572,"BSTAR":0.0064157351,"MEAN_MOTION_DOT":0.0011783,"MEAN_MOTION_DDOT":0},{"OBJECT_NAME":"YAOGAN-1 DEB","OBJECT_ID":"2006-015J","EPOCH":"2026-03-09T17:10:54.675840","MEAN_MOTION":15.17781465,"ECCENTRICITY":0.00121617,"INCLINATION":97.7703,"RA_OF_ASC_NODE":138.5844,"ARG_OF_PERICENTER":172.9693,"MEAN_ANOMALY":187.1713,"EPHEMERIS_TYPE":0,"CLASSIFICATION_TYPE":"U","NORAD_CAT_ID":36365,"ELEMENT_SET_NO":999,"REV_AT_EPOCH":87329,"BSTAR":0.00061009979,"MEAN_MOTION_DOT":0.0001229,"MEAN_MOTION_DDOT":0}]
